{"type": "FeatureCollection", "features": [ {"type": "Feature", "properties": {"norad_id": 54234, "name": "NOAA 21 (JPSS-2)", "group": "weather", "lat": -81.05806833998174, "lon": 13.610039915770695, "alt_km": 835.9400092155083, "timestamp": "2025-12-01T03:58:49.196125+00:00", "meta": {"OBJECT_NAME": "NOAA 21 (JPSS-2)", "OBJECT_ID": "2022-150A", "EPOCH": "2025-11-30T19:57:15.272064", "MEAN_MOTION": 14.19518761, "ECCENTRICITY": 0.0002585, "INCLINATION": 98.7444, "RA_OF_ASC_NODE": 271.2892, "ARG_OF_PERICENTER": 60.2095, "MEAN_ANOMALY": 299.9338, "EPHEMERIS_TYPE": 0, "CLASSIFICATION_TYPE": "U", "NORAD_CAT_ID": 54234, "ELEMENT_SET_NO": 999, "REV_AT_EPOCH": 15840, "BSTAR": 6.9827e-05, "MEAN_MOTION_DOT": 1.03e-06, "MEAN_MOTION_DDOT": 0, "GROUP": "weather"}, "tle": {"line1": "1 54234U 22150A   25334.83142676  .00000103  00000+0  69827-4 0  9991", "line2": "2 54234  98.7444 271.2892 0002585  60.2095 299.9338 14.19518761158403"}}, "geometry": {"type": "Point", "coordinates": [13.610039915770695, -81.05806833998174]}}, {"type": "Feature", "properties": {"norad_id": 54743, "name": "METEOSAT-12 (MTG-I1)", "group": "weather", "lat": 0.7012008252739836, "lon": 129.64487565897957, "alt_km": 35787.55007876641, "timestamp": "2025-12-01T03:58:49.196147+00:00", "meta": {"OBJECT_NAME": "METEOSAT-12 (MTG-I1)", "OBJECT_ID": "2022-170C", "EPOCH": "2025-11-30T17:16:01.882272", "MEAN_MOTION": 1.00273396, "ECCENTRICITY": 0.000138, "INCLINATION": 0.7132, "RA_OF_ASC_NODE": 29.5279, "ARG_OF_PERICENTER": 210.3764, "MEAN_ANOMALY": 88.644, "EPHEMERIS_TYPE": 0, "CLASSIFICATION_TYPE": "U", "NORAD_CAT_ID": 54743, "ELEMENT_SET_NO": 999, "REV_AT_EPOCH": 1098, "BSTAR": 0, "MEAN_MOTION_DOT": 1.5e-07, "MEAN_MOTION_DDOT": 0, "GROUP": "weather"}, "tle": {"line1": "1 54743U 22170C   25334.71946623  .00000015  00000+0  00000+0 0  9994", "line2": "2 54743   0.7132  29.5279 0001380 210.3764  88.6440  1.00273396 10986"}}, "geometry": {"type": "Point", "coordinates": [129.64487565897957, 0.7012008252739836]}}, {"type": "Feature", "properties": {"norad_id": 55973, "name": "TIANMU-1 03", "group": "weather", "lat": -14.750183458235595, "lon": -44.49226197879915, "alt_km": 450.28545221543027, "timestamp": "2025-12-01T03:58:49.196226+00:00", "meta": {"OBJECT_NAME": "TIANMU-1 03", "OBJECT_ID": "2023-039A", "EPOCH": "2025-11-30T19:20:33.552960", "MEAN_MOTION": 15.40396029, "ECCENTRICITY": 0.0004522, "INCLINATION": 97.5106, "RA_OF_ASC_NODE": 137.1288, "ARG_OF_PERICENTER": 95.3676, "MEAN_ANOMALY": 264.8086, "EPHEMERIS_TYPE": 0, "CLASSIFICATION_TYPE": "U", "NORAD_CAT_ID": 55973, "ELEMENT_SET_NO": 999, "REV_AT_EPOCH": 15022, "BSTAR": 0.0004193, "MEAN_MOTION_DOT": 0.00016883, "MEAN_MOTION_DDOT": 0, "GROUP": "weather"}, "tle": {"line1": "1 55973U 23039A   25334.80594390  .00016883  00000+0  41930-3 0  9996", "line2": "2 55973  97.5106 137.1288 0004522  95.3676 264.8086 15.40396029150221"}}, "geometry": {"type": "Point", "coordinates": [-44.49226197879915, -14.750183458235595]}}, {"type": "Feature", "properties": {"norad_id": 55974, "name": "TIANMU-1 04", "group": "weather", "lat": -64.18990759696898, "lon": 152.5099621677691, "alt_km": 454.43970603303933, "timestamp": "2025-12-01T03:58:49.196242+00:00", "meta": {"OBJECT_NAME": "TIANMU-1 04", "OBJECT_ID": "2023-039B", "EPOCH": "2025-11-30T20:28:10.756992", "MEAN_MOTION": 15.4072536, "ECCENTRICITY": 0.0005254, "INCLINATION": 97.5037, "RA_OF_ASC_NODE": 136.3731, "ARG_OF_PERICENTER": 91.427, "MEAN_ANOMALY": 268.7578, "EPHEMERIS_TYPE": 0, "CLASSIFICATION_TYPE": "U", "NORAD_CAT_ID": 55974, "ELEMENT_SET_NO": 999, "REV_AT_EPOCH": 15023, "BSTAR": 0.00041297, "MEAN_MOTION_DOT": 0.00016811, "MEAN_MOTION_DDOT": 0, "GROUP": "weather"}, "tle": {"line1": "1 55974U 23039B   25334.85290228  .00016811  00000+0  41297-3 0  9992", "line2": "2 55974  97.5037 136.3731 0005254  91.4270 268.7578 15.40725360150233"}}, "geometry": {"type": "Point", "coordinates": [152.5099621677691, -64.18990759696898]}}, {"type": "Feature", "properties": {"norad_id": 55975, "name": "TIANMU-1 05", "group": "weather", "lat": -17.6876138100035, "lon": 139.59666684119142, "alt_km": 451.92832563503816, "timestamp": "2025-12-01T03:58:49.196252+00:00", "meta": {"OBJECT_NAME": "TIANMU-1 05", "OBJECT_ID": "2023-039C", "EPOCH": "2025-11-30T20:15:44.006112", "MEAN_MOTION": 15.4035635, "ECCENTRICITY": 0.0004257, "INCLINATION": 97.5084, "RA_OF_ASC_NODE": 136.8559, "ARG_OF_PERICENTER": 112.0159, "MEAN_ANOMALY": 248.1539, "EPHEMERIS_TYPE": 0, "CLASSIFICATION_TYPE": "U", "NORAD_CAT_ID": 55975, "ELEMENT_SET_NO": 999, "REV_AT_EPOCH": 15021, "BSTAR": 0.00041065, "MEAN_MOTION_DOT": 0.0001651, "MEAN_MOTION_DDOT": 0, "GROUP": "weather"}, "tle": {"line1": "1 55975U 23039C   25334.84425933  .00016510  00000+0  41065-3 0  9994", "line2": "2 55975  97.5084 136.8559 0004257 112.0159 248.1539 15.40356350150213"}}, "geometry": {"type": "Point", "coordinates": [139.59666684119142, -17.6876138100035]}}, {"type": "Feature", "properties": {"norad_id": 55976, "name": "TIANMU-1 06", "group": "weather", "lat": -77.05005399201143, "lon": 172.64786046040643, "alt_km": 454.2743380455995, "timestamp": "2025-12-01T03:58:49.196262+00:00", "meta": {"OBJECT_NAME": "TIANMU-1 06", "OBJECT_ID": "2023-039D", "EPOCH": "2025-11-30T20:31:53.668992", "MEAN_MOTION": 15.40778686, "ECCENTRICITY": 0.0004635, "INCLINATION": 97.5094, "RA_OF_ASC_NODE": 137.3229, "ARG_OF_PERICENTER": 107.6074, "MEAN_ANOMALY": 252.5678, "EPHEMERIS_TYPE": 0, "CLASSIFICATION_TYPE": "U", "NORAD_CAT_ID": 55976, "ELEMENT_SET_NO": 999, "REV_AT_EPOCH": 15023, "BSTAR": 0.00041208, "MEAN_MOTION_DOT": 0.00016802, "MEAN_MOTION_DDOT": 0, "GROUP": "weather"}, "tle": {"line1": "1 55976U 23039D   25334.85548228  .00016802  00000+0  41208-3 0  9992", "line2": "2 55976  97.5094 137.3229 0004635 107.6074 252.5678 15.40778686150236"}}, "geometry": {"type": "Point", "coordinates": [172.64786046040643, -77.05005399201143]}}, {"type": "Feature", "properties": {"norad_id": 56232, "name": "FENGYUN 3G", "group": "weather", "lat": 38.452747439229086, "lon": 65.30243330726384, "alt_km": 398.55865280244143, "timestamp": "2025-12-01T03:58:49.196291+00:00", "meta": {"OBJECT_NAME": "FENGYUN 3G", "OBJECT_ID": "2023-055A", "EPOCH": "2025-11-30T21:15:49.906656", "MEAN_MOTION": 15.52583544, "ECCENTRICITY": 0.0009202, "INCLINATION": 49.9944, "RA_OF_ASC_NODE": 288.5757, "ARG_OF_PERICENTER": 91.3123, "MEAN_ANOMALY": 268.8899, "EPHEMERIS_TYPE": 0, "CLASSIFICATION_TYPE": "U", "NORAD_CAT_ID": 56232, "ELEMENT_SET_NO": 999, "REV_AT_EPOCH": 14918, "BSTAR": 0.00055982, "MEAN_MOTION_DOT": 0.0003483, "MEAN_MOTION_DDOT": 0, "GROUP": "weather"}, "tle": {"line1": "1 56232U 23055A   25334.88599429  .00034830  00000+0  55982-3 0  9993", "line2": "2 56232  49.9944 288.5757 0009202  91.3123 268.8899 15.52583544149188"}}, "geometry": {"type": "Point", "coordinates": [65.30243330726384, 38.452747439229086]}}, {"type": "Feature", "properties": {"norad_id": 57166, "name": "METEOR-M2 3", "group": "weather", "lat": -12.5632636043585, "lon": 30.848086557985162, "alt_km": 814.1805159383657, "timestamp": "2025-12-01T03:58:49.196363+00:00", "meta": {"OBJECT_NAME": "METEOR-M2 3", "OBJECT_ID": "2023-091A", "EPOCH": "2025-11-30T21:17:40.387200", "MEAN_MOTION": 14.24023688, "ECCENTRICITY": 0.0004525, "INCLINATION": 98.6394, "RA_OF_ASC_NODE": 28.6327, "ARG_OF_PERICENTER": 40.2801, "MEAN_ANOMALY": 319.8713, "EPHEMERIS_TYPE": 0, "CLASSIFICATION_TYPE": "U", "NORAD_CAT_ID": 57166, "ELEMENT_SET_NO": 999, "REV_AT_EPOCH": 12629, "BSTAR": 2.3789e-05, "MEAN_MOTION_DOT": 1.1e-07, "MEAN_MOTION_DDOT": 0, "GROUP": "weather"}, "tle": {"line1": "1 57166U 23091A   25334.88727300  .00000011  00000+0  23789-4 0  9996", "line2": "2 57166  98.6394  28.6327 0004525  40.2801 319.8713 14.24023688126295"}}, "geometry": {"type": "Point", "coordinates": [30.848086557985162, -12.5632636043585]}}, {"type": "Feature", "properties": {"norad_id": 57399, "name": "TIANMU-1 07", "group": "weather", "lat": 7.617377985813586, "lon": -153.74643037304736, "alt_km": 482.59000022025066, "timestamp": "2025-12-01T03:58:49.196394+00:00", "meta": {"OBJECT_NAME": "TIANMU-1 07", "OBJECT_ID": "2023-101A", "EPOCH": "2025-11-30T20:56:30.912000", "MEAN_MOTION": 15.27805332, "ECCENTRICITY": 0.0005532, "INCLINATION": 97.29, "RA_OF_ASC_NODE": 24.9858, "ARG_OF_PERICENTER": 111.9631, "MEAN_ANOMALY": 248.2197, "EPHEMERIS_TYPE": 0, "CLASSIFICATION_TYPE": "U", "NORAD_CAT_ID": 57399, "ELEMENT_SET_NO": 999, "REV_AT_EPOCH": 13134, "BSTAR": 0.00030229, "MEAN_MOTION_DOT": 8.141e-05, "MEAN_MOTION_DDOT": 0, "GROUP": "weather"}, "tle": {"line1": "1 57399U 23101A   25334.87258000  .00008141  00000+0  30229-3 0  9999", "line2": "2 57399  97.2900  24.9858 0005532 111.9631 248.2197 15.27805332131346"}}, "geometry": {"type": "Point", "coordinates": [-153.74643037304736, 7.617377985813586]}}, {"type": "Feature", "properties": {"norad_id": 57400, "name": "TIANMU-1 08", "group": "weather", "lat": -5.6234646034944475, "lon": 25.794721811968827, "alt_km": 488.8697016024862, "timestamp": "2025-12-01T03:58:49.196407+00:00", "meta": {"OBJECT_NAME": "TIANMU-1 08", "OBJECT_ID": "2023-101B", "EPOCH": "2025-11-30T20:08:44.011392", "MEAN_MOTION": 15.27789704, "ECCENTRICITY": 0.0007377, "INCLINATION": 97.289, "RA_OF_ASC_NODE": 24.7534, "ARG_OF_PERICENTER": 117.315, "MEAN_ANOMALY": 242.8842, "EPHEMERIS_TYPE": 0, "CLASSIFICATION_TYPE": "U", "NORAD_CAT_ID": 57400, "ELEMENT_SET_NO": 999, "REV_AT_EPOCH": 13133, "BSTAR": 0.00030328, "MEAN_MOTION_DOT": 8.166e-05, "MEAN_MOTION_DDOT": 0, "GROUP": "weather"}, "tle": {"line1": "1 57400U 23101B   25334.83939828  .00008166  00000+0  30328-3 0  9999", "line2": "2 57400  97.2890  24.7534 0007377 117.3150 242.8842 15.27789704131331"}}, "geometry": {"type": "Point", "coordinates": [25.794721811968827, -5.6234646034944475]}}]}